*******************************************************************************
Ephemeris / WWW_USER Mon Jul 15 19:27:28 2024 Pasadena, USA      / Horizons    
*******************************************************************************
Target body name: (2018 RA1)                      {source: JPL#6}
Center body name: Earth (399)                     {source: DE441}
Center-site name: Gemini South Obs., Cerro Pachon
*******************************************************************************
Start time      : A.D. 2018-Nov-12 23:23:00.0000 UT      
Stop  time      : A.D. 2018-Nov-13 09:30:00.0000 UT      
Step-size       : 1 minutes
*******************************************************************************
Target pole/equ : undefined
Target radii    : undefined                                                    
Center geodetic : 289.2634, -30.2406227, 2.71233  {E-lon(deg),Lat(deg),Alt(km)}
Center cylindric: 289.2634,5517.21435,-3194.81213 {E-lon(deg),Dxy(km),Dz(km)}
Center pole/equ : ITRF93                          {East-longitude positive}
Center radii    : 6378.137, 6378.137, 6356.752 km {Equator_a, b, pole_c}       
Target primary  : Sun
Vis. interferer : MOON (R_eq= 1737.400) km        {source: DE441}
Rel. light bend : Sun                             {source: DE441}
Rel. lght bnd GM: 1.3271E+11 km^3/s^2                                          
Small-body perts: Yes                             {source: SB441-N16}
Atmos refraction: NO (AIRLESS)
RA format       : HMS
Time format     : CAL 
Calendar mode   : Mixed Julian/Gregorian
RTS-only print  : NO       
EOP file        : eop.240715.p241008                                           
EOP coverage    : DATA-BASED 1962-JAN-20 TO 2024-JUL-15. PREDICTS-> 2024-OCT-07
Units conversion: 1 au= 149597870.700 km, c= 299792.458 km/s, 1 day= 86400.0 s 
Table cut-offs 1: Elevation (-90.0deg=NO ),Airmass (>38.000=NO), Daylight (YES)
Table cut-offs 2: Solar elongation (  0.0,180.0=NO ),Local Hour Angle( 0.0=NO )
Table cut-offs 3: RA/DEC angular rate (     0.0=NO )                           
*******************************************************************************
Initial IAU76/J2000 heliocentric ecliptic osculating elements (au, days, deg.):
  EPOCH=  2458369.5 ! 2018-Sep-08.00 (TDB)         Residual RMS= .21275        
   EC= .3232115344739424   QR= .7703453101153647   TP= 2458436.6763547547      
   OM= 166.2054176892707   W=  269.7217787981747   IN= 8.763099478405824       
  Equivalent ICRF heliocentric cartesian coordinates (au, au/d):
   X= 9.899686155013647E-01  Y=-2.468208982240139E-01  Z=-1.030323866474361E-01
  VX=-9.411283005844916E-04 VY= 1.717513364149167E-02 VZ= 4.613440841260365E-03
Asteroid physical parameters (km, seconds, rotational period in hours):        
   GM= n.a.                RAD= n.a.               ROTPER= n.a.                
   H= 26.4                 G= .150                 B-V= n.a.                   
                           ALBEDO= n.a.            STYP= n.a.                  
*******************************************************************************
 Date__(UT)__HR:MN     R.A._________(ICRF)_________DEC
******************************************************
$$SOE
 2018-Nov-13 03:29  m  11 49 17.930182 -15 31 36.92138
 2018-Nov-13 03:30  m  11 49 18.043157 -15 31 36.87792
 2018-Nov-13 03:31  m  11 49 18.156119 -15 31 36.83453
 2018-Nov-13 03:32  m  11 49 18.269068 -15 31 36.79122
 2018-Nov-13 03:33  m  11 49 18.382005 -15 31 36.74799
 2018-Nov-13 03:34  m  11 49 18.494929 -15 31 36.70483
 2018-Nov-13 03:35  m  11 49 18.607840 -15 31 36.66176
 2018-Nov-13 03:36  m  11 49 18.720737 -15 31 36.61877
 2018-Nov-13 03:37  m  11 49 18.833622 -15 31 36.57585
 2018-Nov-13 03:38  m  11 49 18.946493 -15 31 36.53301
 2018-Nov-13 03:39  m  11 49 19.059351 -15 31 36.49025
 2018-Nov-13 03:40  m  11 49 19.172196 -15 31 36.44756
 2018-Nov-13 03:41  m  11 49 19.285027 -15 31 36.40495
 2018-Nov-13 03:42  m  11 49 19.397844 -15 31 36.36242
 2018-Nov-13 03:43  m  11 49 19.510648 -15 31 36.31997
 2018-Nov-13 03:44  m  11 49 19.623439 -15 31 36.27759
 2018-Nov-13 03:45  m  11 49 19.736215 -15 31 36.23529
 2018-Nov-13 03:46  m  11 49 19.848978 -15 31 36.19306
 2018-Nov-13 03:47  m  11 49 19.961727 -15 31 36.15091
 2018-Nov-13 03:48  m  11 49 20.074461 -15 31 36.10884
 2018-Nov-13 03:49  m  11 49 20.187182 -15 31 36.06683
 2018-Nov-13 03:50  m  11 49 20.299889 -15 31 36.02491
 2018-Nov-13 03:51  m  11 49 20.412581 -15 31 35.98306
 2018-Nov-13 03:52  m  11 49 20.525259 -15 31 35.94128
 2018-Nov-13 03:53  m  11 49 20.637923 -15 31 35.89958
 2018-Nov-13 03:54  m  11 49 20.750572 -15 31 35.85795
 2018-Nov-13 03:55  m  11 49 20.863207 -15 31 35.81639
 2018-Nov-13 03:56  m  11 49 20.975827 -15 31 35.77491
 2018-Nov-13 03:57  m  11 49 21.088433 -15 31 35.73350
 2018-Nov-13 03:58     11 49 21.201024 -15 31 35.69216
 2018-Nov-13 03:59     11 49 21.313600 -15 31 35.65090
 2018-Nov-13 04:00     11 49 21.426161 -15 31 35.60970
 2018-Nov-13 04:01     11 49 21.538707 -15 31 35.56858
 2018-Nov-13 04:02     11 49 21.651238 -15 31 35.52753
 2018-Nov-13 04:03     11 49 21.763754 -15 31 35.48655
 2018-Nov-13 04:04     11 49 21.876255 -15 31 35.44565
 2018-Nov-13 04:05     11 49 21.988741 -15 31 35.40481
 2018-Nov-13 04:06     11 49 22.101211 -15 31 35.36405
 2018-Nov-13 04:07     11 49 22.213666 -15 31 35.32335
 2018-Nov-13 04:08     11 49 22.326106 -15 31 35.28272
 2018-Nov-13 04:09     11 49 22.438530 -15 31 35.24217
 2018-Nov-13 04:10     11 49 22.550938 -15 31 35.20168
 2018-Nov-13 04:11     11 49 22.663331 -15 31 35.16126
 2018-Nov-13 04:12     11 49 22.775708 -15 31 35.12091
 2018-Nov-13 04:13     11 49 22.888070 -15 31 35.08063
 2018-Nov-13 04:14     11 49 23.000415 -15 31 35.04042
 2018-Nov-13 04:15     11 49 23.112745 -15 31 35.00028
 2018-Nov-13 04:16     11 49 23.225059 -15 31 34.96020
 2018-Nov-13 04:17     11 49 23.337356 -15 31 34.92019
 2018-Nov-13 04:18     11 49 23.449638 -15 31 34.88025
 2018-Nov-13 04:19     11 49 23.561903 -15 31 34.84037
 2018-Nov-13 04:20     11 49 23.674152 -15 31 34.80056
 2018-Nov-13 04:21     11 49 23.786385 -15 31 34.76082
 2018-Nov-13 04:22     11 49 23.898601 -15 31 34.72114
 2018-Nov-13 04:23     11 49 24.010801 -15 31 34.68153
 2018-Nov-13 04:24     11 49 24.122985 -15 31 34.64198
 2018-Nov-13 04:25     11 49 24.235152 -15 31 34.60250
 2018-Nov-13 04:26     11 49 24.347302 -15 31 34.56308
 2018-Nov-13 04:27     11 49 24.459436 -15 31 34.52373
 2018-Nov-13 04:28     11 49 24.571552 -15 31 34.48444
 2018-Nov-13 04:29     11 49 24.683652 -15 31 34.44522
 2018-Nov-13 04:30     11 49 24.795736 -15 31 34.40606
 2018-Nov-13 04:31     11 49 24.907802 -15 31 34.36696
 2018-Nov-13 04:32     11 49 25.019851 -15 31 34.32792
 2018-Nov-13 04:33     11 49 25.131883 -15 31 34.28895
 2018-Nov-13 04:34     11 49 25.243898 -15 31 34.25004
 2018-Nov-13 04:35     11 49 25.355896 -15 31 34.21119
 2018-Nov-13 04:36     11 49 25.467877 -15 31 34.17240
 2018-Nov-13 04:37     11 49 25.579840 -15 31 34.13368
 2018-Nov-13 04:38     11 49 25.691786 -15 31 34.09501
 2018-Nov-13 04:39     11 49 25.803714 -15 31 34.05641
 2018-Nov-13 04:40     11 49 25.915625 -15 31 34.01786
 2018-Nov-13 04:41     11 49 26.027519 -15 31 33.97938
 2018-Nov-13 04:42     11 49 26.139395 -15 31 33.94096
 2018-Nov-13 04:43     11 49 26.251253 -15 31 33.90259
 2018-Nov-13 04:44     11 49 26.363093 -15 31 33.86429
 2018-Nov-13 04:45     11 49 26.474916 -15 31 33.82604
 2018-Nov-13 04:46     11 49 26.586721 -15 31 33.78785
 2018-Nov-13 04:47     11 49 26.698508 -15 31 33.74972
 2018-Nov-13 04:48     11 49 26.810277 -15 31 33.71165
 2018-Nov-13 04:49     11 49 26.922028 -15 31 33.67363
 2018-Nov-13 04:50     11 49 27.033761 -15 31 33.63568
 2018-Nov-13 04:51     11 49 27.145476 -15 31 33.59777
 2018-Nov-13 04:52     11 49 27.257173 -15 31 33.55993
 2018-Nov-13 04:53     11 49 27.368852 -15 31 33.52214
 2018-Nov-13 04:54     11 49 27.480512 -15 31 33.48441
 2018-Nov-13 04:55     11 49 27.592154 -15 31 33.44673
 2018-Nov-13 04:56     11 49 27.703778 -15 31 33.40911
 2018-Nov-13 04:57     11 49 27.815383 -15 31 33.37154
 2018-Nov-13 04:58     11 49 27.926970 -15 31 33.33403
 2018-Nov-13 04:59     11 49 28.038538 -15 31 33.29657
 2018-Nov-13 05:00     11 49 28.150088 -15 31 33.25917
 2018-Nov-13 05:01     11 49 28.261619 -15 31 33.22182
 2018-Nov-13 05:02     11 49 28.373131 -15 31 33.18452
 2018-Nov-13 05:03     11 49 28.484625 -15 31 33.14728
 2018-Nov-13 05:04     11 49 28.596100 -15 31 33.11008
 2018-Nov-13 05:05     11 49 28.707556 -15 31 33.07294
 2018-Nov-13 05:06     11 49 28.818993 -15 31 33.03586
 2018-Nov-13 05:07     11 49 28.930411 -15 31 32.99882
 2018-Nov-13 05:08     11 49 29.041811 -15 31 32.96183
 2018-Nov-13 05:09     11 49 29.153191 -15 31 32.92490
 2018-Nov-13 05:10     11 49 29.264552 -15 31 32.88801
 2018-Nov-13 05:11     11 49 29.375894 -15 31 32.85118
 2018-Nov-13 05:12     11 49 29.487217 -15 31 32.81440
 2018-Nov-13 05:13     11 49 29.598521 -15 31 32.77766
 2018-Nov-13 05:14     11 49 29.709805 -15 31 32.74098
 2018-Nov-13 05:15     11 49 29.821070 -15 31 32.70434
 2018-Nov-13 05:16     11 49 29.932316 -15 31 32.66775
 2018-Nov-13 05:17     11 49 30.043543 -15 31 32.63121
 2018-Nov-13 05:18     11 49 30.154750 -15 31 32.59472
 2018-Nov-13 05:19     11 49 30.265937 -15 31 32.55827
 2018-Nov-13 05:20     11 49 30.377105 -15 31 32.52187
 2018-Nov-13 05:21     11 49 30.488253 -15 31 32.48552
 2018-Nov-13 05:22     11 49 30.599382 -15 31 32.44922
 2018-Nov-13 05:23     11 49 30.710491 -15 31 32.41296
 2018-Nov-13 05:24     11 49 30.821581 -15 31 32.37674
 2018-Nov-13 05:25     11 49 30.932651 -15 31 32.34058
 2018-Nov-13 05:26     11 49 31.043701 -15 31 32.30445
 2018-Nov-13 05:27     11 49 31.154731 -15 31 32.26837
 2018-Nov-13 05:28     11 49 31.265741 -15 31 32.23234
 2018-Nov-13 05:29     11 49 31.376731 -15 31 32.19635
 2018-Nov-13 05:30     11 49 31.487702 -15 31 32.16040
 2018-Nov-13 05:31     11 49 31.598652 -15 31 32.12450
